#   ------------------ Verification test cases ----------------------
#                       # TEME example
1 29108U 06016B   10077.87898186  .00000227  00000-0  60279-4 0  2399
2 29108 098.1892 022.9486 0001183 089.4832 270.6520 14.57118350206855